,OBJECT_NAME,OBJECT_ID,EPOCH,MEAN_MOTION,ECCENTRICITY,INCLINATION,RA_OF_ASC_NODE,ARG_OF_PERICENTER,MEAN_ANOMALY,NORAD_CAT_ID,REV_AT_EPOCH,BSTAR,MEAN_MOTION_DOT,MEAN_MOTION_DDOT,SEMIMAJOR_AXIS,PERIOD,APOAPSIS,PERIAPSIS,OBJECT_TYPE,RCS_SIZE,COUNTRY_CODE,LAUNCH_DATE,SITE
12862,STARLINK-2334,2021-018F,2021-11-01T02:19:48.452448,15.0640248,0.0001787,53.0551,167.5779,77.8775,282.2414,47792,3694,0.00012464,1.575e-05,0.0,6925.341,95.592,548.444,545.968,0,2,US,2021.0,AFETR
12863,STARLINK-2338,2021-018G,2021-10-31T21:54:23.899104,15.06412114,0.0001772,53.0549,168.3946,85.7091,274.41,47793,3725,0.00011519,1.435e-05,0.0,6925.311,95.591,548.404,545.949,0,2,US,2021.0,AFETR
12864,STARLINK-2341,2021-018H,2021-10-31T21:59:43.573056,15.06395332,0.0001973,53.0554,168.3918,76.1382,283.9827,47794,3691,-2.9298e-05,-7.18e-06,0.0,6925.363,95.592,548.594,545.861,0,2,US,2021.0,AFETR
12865,STARLINK-2347,2021-018J,2021-10-31T21:43:48.202464,15.06399537,0.000188,53.055,168.4314,77.8402,282.2798,47795,3731,6.8041e-05,7.32e-06,0.0,6925.35,95.592,548.517,545.913,0,2,US,2021.0,AFETR
12866,STARLINK-2373,2021-018K,2021-10-31T22:05:01.714272,15.06406899,0.0001744,53.055,168.3733,72.4626,287.6553,47796,3726,0.00018137,2.421e-05,0.0,6925.327,95.592,548.4,545.985,0,2,US,2021.0,AFETR
12867,STARLINK-2377,2021-018L,2021-10-31T16:35:16.771776,15.06397382,0.0001612,53.0548,194.3859,74.8527,285.264,47797,3687,0.00012102,1.521e-05,0.0,6925.357,95.592,548.338,546.105,0,1,US,2021.0,AFETR
12868,STARLINK-2379,2021-018M,2021-10-31T23:56:30.183648,15.06389036,0.0001714,53.0546,168.0149,80.2825,279.8358,47798,3692,7.6446e-05,8.57e-06,0.0,6925.382,95.593,548.434,546.06,0,2,US,2021.0,AFETR
12869,STARLINK-2380,2021-018N,2021-10-31T22:15:38.055456,15.06410976,0.0001721,53.0561,168.3422,78.489,281.6292,47799,3725,4.2955e-05,3.58e-06,0.0,6925.315,95.591,548.372,545.988,0,2,US,2021.0,AFETR
12870,STARLINK-2381,2021-018P,2021-10-31T21:11:58.045344,15.06397926,0.0001766,53.0544,168.5331,73.4756,286.6427,47800,3725,0.000297,4.145e-05,0.0,6925.355,95.592,548.443,545.997,0,2,US,2021.0,AFETR
12871,STARLINK-2382,2021-018Q,2021-11-01T02:31:02.629056,15.06405023,0.0001989,53.0549,172.5337,68.1623,291.9577,47801,3687,-0.00011972,-2.065e-05,0.0,6925.333,95.592,548.576,545.821,0,2,US,2021.0,AFETR
12872,STARLINK-2383,2021-018R,2021-11-01T02:19:08.527872,15.06404131,0.0006194,53.0472,192.6413,67.2566,292.9077,47802,3659,3.3876e-05,2.21e-06,0.0,6925.336,95.592,551.49,542.911,0,2,US,2021.0,AFETR
12873,STARLINK-2384,2021-018S,2021-11-01T00:38:57.483744,15.06405585,0.0001839,53.0552,167.8915,80.7299,279.3898,47803,3693,0.00014863,1.933e-05,0.0,6925.331,95.592,548.47,545.923,0,2,US,2021.0,AFETR
12874,STARLINK-2385,2021-018T,2021-10-31T21:49:06.350592,15.06395427,0.0001861,53.055,168.41,75.9804,284.1392,47804,3691,0.00010848,1.334e-05,0.0,6925.363,95.592,548.516,545.939,0,2,US,2021.0,AFETR
12875,STARLINK-2386,2021-018U,2021-11-01T01:14:45.301344,15.06396908,0.0001708,53.0537,167.7668,77.5889,282.5291,47805,3693,0.00010854,1.335e-05,0.0,6925.358,95.592,548.406,546.04,0,2,US,2021.0,AFETR
12876,STARLINK-2387,2021-018V,2021-10-31T17:54:51.869088,15.06400353,0.0001899,53.0551,184.1558,80.7585,279.3619,47806,3708,2.106e-05,3.2e-07,0.0,6925.347,95.592,548.528,545.897,0,2,US,2021.0,AFETR
12877,STARLINK-2388,2021-018W,2021-10-31T20:52:03.220608,15.06401125,0.0002018,53.0475,158.6167,76.2287,283.8926,47807,3704,-2.3951e-05,-6.38e-06,0.0,6925.345,95.592,548.608,545.813,0,2,US,2021.0,AFETR
12878,STARLINK-2389,2021-018X,2021-10-31T18:21:24.803424,15.06391526,0.000172,53.055,184.0651,84.5244,275.5941,47808,3708,6.2758e-05,6.53e-06,0.0,6925.375,95.593,548.431,546.048,0,2,US,2021.0,AFETR
12879,STARLINK-2390,2021-018Y,2021-10-31T18:30:03.781440,15.06398464,0.0001756,53.0545,189.0313,76.4421,283.6764,47809,3701,6.2258e-05,6.46e-06,0.0,6925.353,95.592,548.434,546.002,0,2,US,2021.0,AFETR
12880,STARLINK-2391,2021-018Z,2021-10-31T15:54:48.753792,15.06399664,0.0002023,53.0533,199.5338,75.827,284.2944,47810,3685,1.11e-06,-2.65e-06,0.0,6925.35,95.592,548.616,545.814,0,2,US,2021.0,AFETR
12881,STARLINK-2392,2021-018AA,2021-11-01T02:25:05.801376,15.06405674,0.0001797,53.0549,167.5525,86.4201,273.6994,47811,3694,1.6168e-05,-4.1e-07,0.0,6925.331,95.592,548.441,545.952,0,2,US,2021.0,AFETR
12882,STARLINK-2393,2021-018AB,2021-10-31T19:21:48.339936,15.06404058,0.0001799,53.0538,198.8671,69.0632,291.0549,47812,3681,-5.15e-06,-3.58e-06,0.0,6925.336,95.592,548.447,545.955,0,2,US,2021.0,AFETR
12883,STARLINK-2394,2021-018AC,2021-11-01T02:56:57.588864,15.06404495,0.0001889,53.0551,167.4609,77.2874,282.8326,47813,3694,0.0001414,1.825e-05,0.0,6925.335,95.592,548.508,545.892,0,2,US,2021.0,AFETR
12884,STARLINK-2395,2021-018AD,2021-11-01T01:55:54.710976,15.06399323,0.0001685,53.0536,187.6558,76.686,283.4317,47814,3667,-3.88e-06,-3.39e-06,0.0,6925.351,95.592,548.383,546.049,0,1,US,2021.0,AFETR
12885,STARLINK-2396,2021-018AE,2021-10-31T21:55:04.729152,15.06397724,0.0001711,53.0558,183.4068,80.2672,279.851,47815,3671,5.5676e-05,5.48e-06,0.0,6925.356,95.592,548.405,546.036,0,2,US,2021.0,AFETR
12886,STARLINK-2399,2021-018AF,2021-10-31T18:56:36.172320,15.06396504,0.0001633,53.0552,188.9551,78.2981,281.8192,47816,3695,1.4509e-05,-6.5e-07,0.0,6925.359,95.592,548.355,546.093,0,2,US,2021.0,AFETR
12887,STARLINK-2400,2021-018AG,2021-10-31T19:23:07.872000,15.06415531,0.0001817,53.0533,188.8665,70.7317,289.3869,47817,3695,0.00039074,5.546e-05,0.0,6925.301,95.591,548.424,545.908,0,2,US,2021.0,AFETR
