STARLINK-2334           
1 47792U 21018F   21305.09708857  .00001575  00000-0  12464-3 0  9994
2 47792  53.0551 167.5779 0001787  77.8775 282.2414 15.06402480 36941
STARLINK-2338           
1 47793U 21018G   21304.91277661  .00001435  00000-0  11519-3 0  9994
2 47793  53.0549 168.3946 0001772  85.7091 274.4100 15.06412114 37252
STARLINK-2341           
1 47794U 21018H   21304.91647654 -.00000718  00000-0 -29298-4 0  9997
2 47794  53.0554 168.3918 0001973  76.1382 283.9827 15.06395332 36913
STARLINK-2347           
1 47795U 21018J   21304.90541901  .00000732  00000-0  68041-4 0  9998
2 47795  53.0550 168.4314 0001880  77.8402 282.2798 15.06399537 37314
STARLINK-2373           
1 47796U 21018K   21304.92015873  .00002421  00000-0  18137-3 0  9992
2 47796  53.0550 168.3733 0001744  72.4626 287.6553 15.06406899 37269
STARLINK-2377           
1 47797U 21018L   21304.69116634  .00001521  00000-0  12102-3 0  9990
2 47797  53.0548 194.3859 0001612  74.8527 285.2640 15.06397382 36878
STARLINK-2379           
1 47798U 21018M   21304.99757157  .00000857  00000-0  76446-4 0  9998
2 47798  53.0546 168.0149 0001714  80.2825 279.8358 15.06389036 36920
STARLINK-2380           
1 47799U 21018N   21304.92752379  .00000358  00000-0  42955-4 0  9997
2 47799  53.0561 168.3422 0001721  78.4890 281.6292 15.06410976 37257
STARLINK-2381           
1 47800U 21018P   21304.88331071  .00004145  00000-0  29700-3 0  9997
2 47800  53.0544 168.5331 0001766  73.4756 286.6427 15.06397926 37251
STARLINK-2382           
1 47801U 21018Q   21305.10489154 -.00002065  00000-0 -11972-3 0  9993
2 47801  53.0549 172.5337 0001989  68.1623 291.9577 15.06405023 36879
STARLINK-2383           
1 47802U 21018R   21305.09662648  .00000221  00000-0  33876-4 0  9991
2 47802  53.0472 192.6413 0006194  67.2566 292.9077 15.06404131 36596
STARLINK-2384           
1 47803U 21018S   21305.02705421  .00001933  00000-0  14863-3 0  9997
2 47803  53.0552 167.8915 0001839  80.7299 279.3898 15.06405585 36933
STARLINK-2385           
1 47804U 21018T   21304.90910128  .00001334  00000-0  10848-3 0  9990
2 47804  53.0550 168.4100 0001861  75.9804 284.1392 15.06395427 36912
STARLINK-2386           
1 47805U 21018U   21305.05191321  .00001335  00000-0  10854-3 0  9992
2 47805  53.0537 167.7668 0001708  77.5889 282.5291 15.06396908 36937
STARLINK-2387           
1 47806U 21018V   21304.74643367  .00000032  00000-0  21060-4 0  9995
2 47806  53.0551 184.1558 0001899  80.7585 279.3619 15.06400353 37080
STARLINK-2388           
1 47807U 21018W   21304.86948172 -.00000638  00000-0 -23951-4 0  9996
2 47807  53.0475 158.6167 0002018  76.2287 283.8926 15.06401125 37046
STARLINK-2389           
1 47808U 21018X   21304.76487041  .00000653  00000-0  62758-4 0  9992
2 47808  53.0550 184.0651 0001720  84.5244 275.5941 15.06391526 37088
STARLINK-2390           
1 47809U 21018Y   21304.77087710  .00000646  00000-0  62258-4 0  9990
2 47809  53.0545 189.0313 0001756  76.4421 283.6764 15.06398464 37013
STARLINK-2391           
1 47810U 21018Z   21304.66306428 -.00000265  00000-0  11095-5 0  9992
2 47810  53.0533 199.5338 0002023  75.8270 284.2944 15.06399664 36859
STARLINK-2392           
1 47811U 21018AA  21305.10076159 -.00000041  00000-0  16168-4 0  9995
2 47811  53.0549 167.5525 0001797  86.4201 273.6994 15.06405674 36945
STARLINK-2393           
1 47812U 21018AB  21304.80680949 -.00000358  00000-0 -51458-5 0  9994
2 47812  53.0538 198.8671 0001799  69.0632 291.0549 15.06404058 36811
STARLINK-2394           
1 47813U 21018AC  21305.12288876  .00001825  00000-0  14140-3 0  9997
2 47813  53.0551 167.4609 0001889  77.2874 282.8326 15.06404495 36949
STARLINK-2395           
1 47814U 21018AD  21305.08049434 -.00000339  00000-0 -38829-5 0  9991
2 47814  53.0536 187.6558 0001685  76.6860 283.4317 15.06399323 36672
STARLINK-2396           
1 47815U 21018AE  21304.91324918  .00000548  00000-0  55676-4 0  9994
2 47815  53.0558 183.4068 0001711  80.2672 279.8510 15.06397724 36711
STARLINK-2399           
1 47816U 21018AF  21304.78930755 -.00000065  00000-0  14509-4 0  9997
2 47816  53.0552 188.9551 0001633  78.2981 281.8192 15.06396504 36956
STARLINK-2400           
1 47817U 21018AG  21304.80773000  .00005546  00000-0  39074-3 0  9990
2 47817  53.0533 188.8665 0001817  70.7317 289.3869 15.06415531 36951
